[{"OBJECT_NAME":"QIANFAN-69","OBJECT_ID":"2025-016Q","EPOCH":"2026-03-06T20:01:18.989184","MEAN_MOTION":13.51005461,"ECCENTRICITY":0.0017978,"INCLINATION":88.9665,"RA_OF_ASC_NODE":94.2465,"ARG_OF_PERICENTER":101.492,"MEAN_ANOMALY":258.8251,"EPHEMERIS_TYPE":0,"CLASSIFICATION_TYPE":"U","NORAD_CAT_ID":62799,"ELEMENT_SET_NO":999,"REV_AT_EPOCH":5863,"BSTAR":6.5351e-5,"MEAN_MOTION_DOT":5.4e-7,"MEAN_MOTION_DDOT":0},{"OBJECT_NAME":"QIANFAN-70","OBJECT_ID":"2025-016R","EPOCH":"2026-03-06T20:24:58.084128","MEAN_MOTION":13.50997223,"ECCENTRICITY":0.0017571,"INCLINATION":88.9686,"RA_OF_ASC_NODE":94.4011,"ARG_OF_PERICENTER":93.0183,"MEAN_ANOMALY":267.2979,"EPHEMERIS_TYPE":0,"CLASSIFICATION_TYPE":"U","NORAD_CAT_ID":62800,"ELEMENT_SET_NO":999,"REV_AT_EPOCH":5859,"BSTAR":6.7123e-5,"MEAN_MOTION_DOT":5.6e-7,"MEAN_MOTION_DDOT":0},{"OBJECT_NAME":"QIANFAN-71","OBJECT_ID":"2025-016S","EPOCH":"2026-03-06T20:18:57.849696","MEAN_MOTION":13.50996671,"ECCENTRICITY":0.0017873,"INCLINATION":88.968,"RA_OF_ASC_NODE":94.3758,"ARG_OF_PERICENTER":104.6044,"MEAN_ANOMALY":255.7091,"EPHEMERIS_TYPE":0,"CLASSIFICATION_TYPE":"U","NORAD_CAT_ID":62801,"ELEMENT_SET_NO":999,"REV_AT_EPOCH":5859,"BSTAR":5.5582e-5,"MEAN_MOTION_DOT":4.8e-7,"MEAN_MOTION_DDOT":0},{"OBJECT_NAME":"QIANFAN-72","OBJECT_ID":"2025-016T","EPOCH":"2026-03-06T18:56:01.684896","MEAN_MOTION":13.50996263,"ECCENTRICITY":0.0021082,"INCLINATION":88.9671,"RA_OF_ASC_NODE":94.387,"ARG_OF_PERICENTER":111.3833,"MEAN_ANOMALY":248.9571,"EPHEMERIS_TYPE":0,"CLASSIFICATION_TYPE":"U","NORAD_CAT_ID":62802,"ELEMENT_SET_NO":999,"REV_AT_EPOCH":5857,"BSTAR":1.3969e-5,"MEAN_MOTION_DOT":2.1e-7,"MEAN_MOTION_DDOT":0},{"OBJECT_NAME":"QIANFAN-73","OBJECT_ID":"2025-046A","EPOCH":"2026-03-06T19:34:41.813472","MEAN_MOTION":13.50998694,"ECCENTRICITY":0.0013192,"INCLINATION":88.9757,"RA_OF_ASC_NODE":311.3398,"ARG_OF_PERICENTER":238.9992,"MEAN_ANOMALY":120.9863,"EPHEMERIS_TYPE":0,"CLASSIFICATION_TYPE":"U","NORAD_CAT_ID":63159,"ELEMENT_SET_NO":999,"REV_AT_EPOCH":5876,"BSTAR":0.00021991,"MEAN_MOTION_DOT":1.54e-6,"MEAN_MOTION_DDOT":0},{"OBJECT_NAME":"QIANFAN-74","OBJECT_ID":"2025-046B","EPOCH":"2026-03-06T19:11:04.786944","MEAN_MOTION":13.50998619,"ECCENTRICITY":0.0001908,"INCLINATION":88.9757,"RA_OF_ASC_NODE":311.2303,"ARG_OF_PERICENTER":78.7018,"MEAN_ANOMALY":281.4348,"EPHEMERIS_TYPE":0,"CLASSIFICATION_TYPE":"U","NORAD_CAT_ID":63160,"ELEMENT_SET_NO":999,"REV_AT_EPOCH":5882,"BSTAR":0.00025638,"MEAN_MOTION_DOT":1.78e-6,"MEAN_MOTION_DDOT":0},{"OBJECT_NAME":"QIANFAN-75","OBJECT_ID":"2025-046C","EPOCH":"2026-03-06T18:52:33.556800","MEAN_MOTION":13.50998062,"ECCENTRICITY":0.0014357,"INCLINATION":88.9759,"RA_OF_ASC_NODE":311.4665,"ARG_OF_PERICENTER":242.7488,"MEAN_ANOMALY":117.2201,"EPHEMERIS_TYPE":0,"CLASSIFICATION_TYPE":"U","NORAD_CAT_ID":63161,"ELEMENT_SET_NO":999,"REV_AT_EPOCH":5869,"BSTAR":0.00010045,"MEAN_MOTION_DOT":7.7e-7,"MEAN_MOTION_DDOT":0},{"OBJECT_NAME":"QIANFAN-76","OBJECT_ID":"2025-046D","EPOCH":"2026-03-06T18:47:15.283392","MEAN_MOTION":13.51006707,"ECCENTRICITY":0.0011886,"INCLINATION":88.9757,"RA_OF_ASC_NODE":311.4468,"ARG_OF_PERICENTER":243.328,"MEAN_ANOMALY":116.6654,"EPHEMERIS_TYPE":0,"CLASSIFICATION_TYPE":"U","NORAD_CAT_ID":63162,"ELEMENT_SET_NO":999,"REV_AT_EPOCH":5870,"BSTAR":0.000226,"MEAN_MOTION_DOT":1.58e-6,"MEAN_MOTION_DDOT":0},{"OBJECT_NAME":"QIANFAN-77","OBJECT_ID":"2025-046E","EPOCH":"2026-03-06T19:51:21.628224","MEAN_MOTION":13.9617559,"ECCENTRICITY":0.0014608,"INCLINATION":88.9754,"RA_OF_ASC_NODE":308.7581,"ARG_OF_PERICENTER":170.5619,"MEAN_ANOMALY":189.5835,"EPHEMERIS_TYPE":0,"CLASSIFICATION_TYPE":"U","NORAD_CAT_ID":63163,"ELEMENT_SET_NO":999,"REV_AT_EPOCH":6018,"BSTAR":0.00029298,"MEAN_MOTION_DOT":4.16e-6,"MEAN_MOTION_DDOT":0},{"OBJECT_NAME":"QIANFAN-78","OBJECT_ID":"2025-046F","EPOCH":"2026-03-06T19:46:33.141216","MEAN_MOTION":13.50999052,"ECCENTRICITY":0.0013214,"INCLINATION":88.9757,"RA_OF_ASC_NODE":311.3057,"ARG_OF_PERICENTER":246.1481,"MEAN_ANOMALY":113.8285,"EPHEMERIS_TYPE":0,"CLASSIFICATION_TYPE":"U","NORAD_CAT_ID":63164,"ELEMENT_SET_NO":999,"REV_AT_EPOCH":5878,"BSTAR":0.00029174,"MEAN_MOTION_DOT":2.0e-6,"MEAN_MOTION_DDOT":0},{"OBJECT_NAME":"QIANFAN-79","OBJECT_ID":"2025-046G","EPOCH":"2026-03-06T20:28:12.989568","MEAN_MOTION":13.51009136,"ECCENTRICITY":0.0013076,"INCLINATION":88.9761,"RA_OF_ASC_NODE":311.4136,"ARG_OF_PERICENTER":244.1846,"MEAN_ANOMALY":115.7956,"EPHEMERIS_TYPE":0,"CLASSIFICATION_TYPE":"U","NORAD_CAT_ID":63165,"ELEMENT_SET_NO":999,"REV_AT_EPOCH":5873,"BSTAR":0.00027659,"MEAN_MOTION_DOT":1.91e-6,"MEAN_MOTION_DDOT":0},{"OBJECT_NAME":"QIANFAN-80","OBJECT_ID":"2025-046H","EPOCH":"2026-03-06T19:05:02.819328","MEAN_MOTION":13.50998623,"ECCENTRICITY":0.001189,"INCLINATION":88.9758,"RA_OF_ASC_NODE":311.1241,"ARG_OF_PERICENTER":249.0547,"MEAN_ANOMALY":110.9332,"EPHEMERIS_TYPE":0,"CLASSIFICATION_TYPE":"U","NORAD_CAT_ID":63166,"ELEMENT_SET_NO":999,"REV_AT_EPOCH":5888,"BSTAR":0.00023783,"MEAN_MOTION_DOT":1.66e-6,"MEAN_MOTION_DDOT":0},{"OBJECT_NAME":"QIANFAN-81","OBJECT_ID":"2025-046J","EPOCH":"2026-03-06T20:20:15.498240","MEAN_MOTION":13.50984517,"ECCENTRICITY":0.0013015,"INCLINATION":88.9758,"RA_OF_ASC_NODE":311.1866,"ARG_OF_PERICENTER":236.5745,"MEAN_ANOMALY":123.4162,"EPHEMERIS_TYPE":0,"CLASSIFICATION_TYPE":"U","NORAD_CAT_ID":63167,"ELEMENT_SET_NO":999,"REV_AT_EPOCH":5884,"BSTAR":0.00023999,"MEAN_MOTION_DOT":1.67e-6,"MEAN_MOTION_DDOT":0},{"OBJECT_NAME":"QIANFAN-82","OBJECT_ID":"2025-046K","EPOCH":"2026-03-06T19:22:52.901472","MEAN_MOTION":13.51000066,"ECCENTRICITY":0.0011035,"INCLINATION":88.9758,"RA_OF_ASC_NODE":311.2347,"ARG_OF_PERICENTER":244.5345,"MEAN_ANOMALY":115.4664,"EPHEMERIS_TYPE":0,"CLASSIFICATION_TYPE":"U","NORAD_CAT_ID":63168,"ELEMENT_SET_NO":999,"REV_AT_EPOCH":5882,"BSTAR":0.00025432,"MEAN_MOTION_DOT":1.76e-6,"MEAN_MOTION_DDOT":0},{"OBJECT_NAME":"QIANFAN-83","OBJECT_ID":"2025-046L","EPOCH":"2026-03-06T19:36:35.885664","MEAN_MOTION":13.62021982,"ECCENTRICITY":0.0012561,"INCLINATION":88.9758,"RA_OF_ASC_NODE":310.8449,"ARG_OF_PERICENTER":222.3042,"MEAN_ANOMALY":137.7148,"EPHEMERIS_TYPE":0,"CLASSIFICATION_TYPE":"U","NORAD_CAT_ID":63169,"ELEMENT_SET_NO":999,"REV_AT_EPOCH":5904,"BSTAR":0.0003705,"MEAN_MOTION_DOT":2.98e-6,"MEAN_MOTION_DDOT":0},{"OBJECT_NAME":"QIANFAN-84","OBJECT_ID":"2025-046M","EPOCH":"2026-03-06T20:03:00.133344","MEAN_MOTION":13.50962279,"ECCENTRICITY":0.0013983,"INCLINATION":88.9758,"RA_OF_ASC_NODE":311.3642,"ARG_OF_PERICENTER":240.8436,"MEAN_ANOMALY":119.1316,"EPHEMERIS_TYPE":0,"CLASSIFICATION_TYPE":"U","NORAD_CAT_ID":63170,"ELEMENT_SET_NO":999,"REV_AT_EPOCH":5875,"BSTAR":0.00026828,"MEAN_MOTION_DOT":1.85e-6,"MEAN_MOTION_DDOT":0},{"OBJECT_NAME":"QIANFAN-85","OBJECT_ID":"2025-046N","EPOCH":"2026-03-06T19:58:24.017088","MEAN_MOTION":13.51002771,"ECCENTRICITY":0.0011454,"INCLINATION":88.9757,"RA_OF_ASC_NODE":311.236,"ARG_OF_PERICENTER":243.1553,"MEAN_ANOMALY":116.8428,"EPHEMERIS_TYPE":0,"CLASSIFICATION_TYPE":"U","NORAD_CAT_ID":63171,"ELEMENT_SET_NO":999,"REV_AT_EPOCH":5882,"BSTAR":0.00025495,"MEAN_MOTION_DOT":1.77e-6,"MEAN_MOTION_DDOT":0}]
