QIANFAN-69              
1 62799U 25016Q   26065.83424756  .00000054  00000+0  65351-4 0  9997
2 62799  88.9665  94.2465 0017978 101.4920 258.8251 13.51005461 58635
QIANFAN-70              
1 62800U 25016R   26065.85067227  .00000056  00000+0  67123-4 0  9999
2 62800  88.9686  94.4011 0017571  93.0183 267.2979 13.50997223 58597
QIANFAN-71              
1 62801U 25016S   26065.84650289  .00000048  00000+0  55582-4 0  9992
2 62801  88.9680  94.3758 0017873 104.6044 255.7091 13.50996671 58592
QIANFAN-72              
1 62802U 25016T   26065.78890839  .00000021  00000+0  13969-4 0  9997
2 62802  88.9671  94.3870 0021082 111.3833 248.9571 13.50996263 58578
QIANFAN-73              
1 63159U 25046A   26065.81576173  .00000154  00000+0  21991-3 0  9992
2 63159  88.9757 311.3398 0013192 238.9992 120.9863 13.50998694 58765
QIANFAN-74              
1 63160U 25046B   26065.79936096  .00000178  00000+0  25638-3 0  9993
2 63160  88.9757 311.2303 0001908  78.7018 281.4348 13.50998619 58828
QIANFAN-75              
1 63161U 25046C   26065.78649950  .00000077  00000+0  10045-3 0  9997
2 63161  88.9759 311.4665 0014357 242.7488 117.2201 13.50998062 58691
QIANFAN-76              
1 63162U 25046D   26065.78281578  .00000158  00000+0  22600-3 0  9996
2 63162  88.9757 311.4468 0011886 243.3280 116.6654 13.51006707 58706
QIANFAN-77              
1 63163U 25046E   26065.82733366  .00000416  00000+0  29298-3 0  9996
2 63163  88.9754 308.7581 0014608 170.5619 189.5835 13.96175590 60182
QIANFAN-78              
1 63164U 25046F   26065.82399469  .00000200  00000+0  29174-3 0  9993
2 63164  88.9757 311.3057 0013214 246.1481 113.8285 13.50999052 58782
QIANFAN-79              
1 63165U 25046G   26065.85292812  .00000191  00000+0  27659-3 0  9996
2 63165  88.9761 311.4136 0013076 244.1846 115.7956 13.51009136 58733
QIANFAN-80              
1 63166U 25046H   26065.79517152  .00000166  00000+0  23783-3 0  9993
2 63166  88.9758 311.1241 0011890 249.0547 110.9332 13.50998623 58886
QIANFAN-81              
1 63167U 25046J   26065.84740160  .00000167  00000+0  23999-3 0  9997
2 63167  88.9758 311.1866 0013015 236.5745 123.4162 13.50984517 58845
QIANFAN-82              
1 63168U 25046K   26065.80755673  .00000176  00000+0  25432-3 0  9993
2 63168  88.9758 311.2347 0011035 244.5345 115.4664 13.51000066 58821
QIANFAN-83              
1 63169U 25046L   26065.81708201  .00000298  00000+0  37050-3 0  9994
2 63169  88.9758 310.8449 0012561 222.3042 137.7148 13.62021982 59044
QIANFAN-84              
1 63170U 25046M   26065.83541821  .00000185  00000+0  26828-3 0  9997
2 63170  88.9758 311.3642 0013983 240.8436 119.1316 13.50962279 58756
QIANFAN-85              
1 63171U 25046N   26065.83222242  .00000177  00000+0  25495-3 0  9991
2 63171  88.9757 311.2360 0011454 243.1553 116.8428 13.51002771 58828
